[{"OBJECT_NAME":"UHETSAT","OBJECT_ID":"2023-185E","EPOCH":"2026-03-09T22:39:26.455680","MEAN_MOTION":15.29797662,"ECCENTRICITY":0.00118435,"INCLINATION":97.3584,"RA_OF_ASC_NODE":137.3576,"ARG_OF_PERICENTER":307.7346,"MEAN_ANOMALY":52.2821,"EPHEMERIS_TYPE":0,"CLASSIFICATION_TYPE":"U","NORAD_CAT_ID":58466,"ELEMENT_SET_NO":999,"REV_AT_EPOCH":12611,"BSTAR":0.00030513019,"MEAN_MOTION_DOT":8.749e-5,"MEAN_MOTION_DDOT":0},{"OBJECT_NAME":"STARLINK-32692","OBJECT_ID":"2024-249P","EPOCH":"2026-03-09T23:10:40.068192","MEAN_MOTION":15.2760041,"ECCENTRICITY":0.00015752,"INCLINATION":43.0004,"RA_OF_ASC_NODE":320.4789,"ARG_OF_PERICENTER":273.8447,"MEAN_ANOMALY":86.2225,"EPHEMERIS_TYPE":0,"CLASSIFICATION_TYPE":"U","NORAD_CAT_ID":62422,"ELEMENT_SET_NO":999,"REV_AT_EPOCH":6776,"BSTAR":0.0013680124,"MEAN_MOTION_DOT":0.00037598,"MEAN_MOTION_DDOT":0}]
